{
  "type": "FeatureCollection",
  "generator": "overpass-turbo",
  "copyright": "The data included in this document is from www.openstreetmap.org. The data is made available under ODbL.",
  "timestamp": "2026-06-14T03:06:14Z",
  "features": [
    {
      "type": "Feature",
      "properties": {
        "@id": "way/27394426",
        "name": "Ballygunneen Lough",
        "natural": "water",
        "water": "lake"
      },
      "geometry": {
        "type": "Polygon",
        "coordinates": [
          [
            [
              -8.8392473,
              52.7181267
            ],
            [
              -8.8392236,
              52.7181882
            ],
            [
              -8.8392778,
              52.7182457
            ],
            [
              -8.8395453,
              52.718379
            ],
            [
              -8.8395927,
              52.7184365
            ],
            [
              -8.8396706,
              52.7184816
            ],
            [
              -8.839884,
              52.7185883
            ],
            [
              -8.8399178,
              52.7186867
            ],
            [
              -8.8400838,
              52.7188713
            ],
            [
              -8.840121,
              52.718896
            ],
            [
              -8.8403242,
              52.7189513
            ],
            [
              -8.8407238,
              52.718898
            ],
            [
              -8.8410354,
              52.7187893
            ],
            [
              -8.8412657,
              52.7186867
            ],
            [
              -8.8414994,
              52.7185349
            ],
            [
              -8.8415874,
              52.7184036
            ],
            [
              -8.8415502,
              52.7182108
            ],
            [
              -8.8415705,
              52.7181759
            ],
            [
              -8.8414689,
              52.7180364
            ],
            [
              -8.8412454,
              52.7178559
            ],
            [
              -8.8411099,
              52.7177841
            ],
            [
              -8.8407983,
              52.7177411
            ],
            [
              -8.840121,
              52.7177328
            ],
            [
              -8.8399822,
              52.7176631
            ],
            [
              -8.8397214,
              52.7175646
            ],
            [
              -8.8395352,
              52.7175523
            ],
            [
              -8.8394302,
              52.7175975
            ],
            [
              -8.8395792,
              52.7177062
            ],
            [
              -8.8394877,
              52.7177985
            ],
            [
              -8.8393252,
              52.7179052
            ],
            [
              -8.8392473,
              52.718018
            ],
            [
              -8.8392473,
              52.7181267
            ]
          ]
        ]
      },
      "id": "way/27394426"
    },
    {
      "type": "Feature",
      "properties": {
        "@id": "way/315281218",
        "natural": "water",
        "salt": "no",
        "water": "pond"
      },
      "geometry": {
        "type": "Polygon",
        "coordinates": [
          [
            [
              -8.8103441,
              52.7029758
            ],
            [
              -8.8103202,
              52.703138
            ],
            [
              -8.8101433,
              52.7032278
            ],
            [
              -8.8100333,
              52.7034162
            ],
            [
              -8.8101098,
              52.7035552
            ],
            [
              -8.8103202,
              52.7036827
            ],
            [
              -8.8105449,
              52.7035929
            ],
            [
              -8.8105353,
              52.7034799
            ],
            [
              -8.8105067,
              52.7033756
            ],
            [
              -8.8105927,
              52.703167
            ],
            [
              -8.8107696,
              52.7029526
            ],
            [
              -8.8106883,
              52.7027874
            ],
            [
              -8.8105019,
              52.7026571
            ],
            [
              -8.8103106,
              52.7026455
            ],
            [
              -8.8101528,
              52.7027498
            ],
            [
              -8.8100954,
              52.7028338
            ],
            [
              -8.8101576,
              52.702883
            ],
            [
              -8.8103441,
              52.7029758
            ]
          ]
        ]
      },
      "id": "way/315281218"
    },
    {
      "type": "Feature",
      "properties": {
        "@id": "way/695027825",
        "intermittent": "yes",
        "natural": "water",
        "salt": "no",
        "water": "pond"
      },
      "geometry": {
        "type": "Polygon",
        "coordinates": [
          [
            [
              -8.9346131,
              52.7223589
            ],
            [
              -8.9350369,
              52.7223817
            ],
            [
              -8.9352568,
              52.7223687
            ],
            [
              -8.9355572,
              52.722307
            ],
            [
              -8.9357771,
              52.7221932
            ],
            [
              -8.9360293,
              52.7220243
            ],
            [
              -8.936158,
              52.7218488
            ],
            [
              -8.9361795,
              52.7217514
            ],
            [
              -8.9361044,
              52.7216701
            ],
            [
              -8.9360668,
              52.7215824
            ],
            [
              -8.9358576,
              52.7215694
            ],
            [
              -8.9352514,
              52.7216279
            ],
            [
              -8.9349403,
              52.7215856
            ],
            [
              -8.9346077,
              52.7216116
            ],
            [
              -8.9343985,
              52.7214752
            ],
            [
              -8.9342161,
              52.7213387
            ],
            [
              -8.933846,
              52.7213322
            ],
            [
              -8.933685,
              52.7213615
            ],
            [
              -8.9334919,
              52.7212802
            ],
            [
              -8.9333202,
              52.7212542
            ],
            [
              -8.9332612,
              52.7213842
            ],
            [
              -8.9330735,
              52.7213809
            ],
            [
              -8.9329876,
              52.7213257
            ],
            [
              -8.9329233,
              52.7214232
            ],
            [
              -8.9330037,
              52.7215434
            ],
            [
              -8.9331486,
              52.7219885
            ],
            [
              -8.9329769,
              52.7222777
            ],
            [
              -8.9328797,
              52.722262
            ],
            [
              -8.932757,
              52.7220438
            ],
            [
              -8.9326229,
              52.721956
            ],
            [
              -8.9323976,
              52.7219431
            ],
            [
              -8.9323117,
              52.7220795
            ],
            [
              -8.9324566,
              52.7222485
            ],
            [
              -8.9327248,
              52.7224467
            ],
            [
              -8.9328482,
              52.7227618
            ],
            [
              -8.932757,
              52.72296
            ],
            [
              -8.9326819,
              52.723116
            ],
            [
              -8.9326014,
              52.7231907
            ],
            [
              -8.9326711,
              52.7232232
            ],
            [
              -8.932757,
              52.7231972
            ],
            [
              -8.9327945,
              52.7231192
            ],
            [
              -8.9331003,
              52.723116
            ],
            [
              -8.9332237,
              52.7231192
            ],
            [
              -8.9335992,
              52.7230965
            ],
            [
              -8.9337279,
              52.7230965
            ],
            [
              -8.933862,
              52.7230672
            ],
            [
              -8.9340069,
              52.72296
            ],
            [
              -8.9341034,
              52.7228463
            ],
            [
              -8.9341517,
              52.7227001
            ],
            [
              -8.9342161,
              52.7226026
            ],
            [
              -8.934259,
              52.7225019
            ],
            [
              -8.9344468,
              52.7223947
            ],
            [
              -8.9346131,
              52.7223589
            ]
          ]
        ]
      },
      "id": "way/695027825"
    },
    {
      "type": "Feature",
      "properties": {
        "@id": "way/695032371",
        "natural": "water",
        "salt": "no",
        "water": "pond"
      },
      "geometry": {
        "type": "Polygon",
        "coordinates": [
          [
            [
              -8.8117292,
              52.722242
            ],
            [
              -8.8118097,
              52.7222338
            ],
            [
              -8.8118687,
              52.7222209
            ],
            [
              -8.8119438,
              52.722203
            ],
            [
              -8.8119813,
              52.7221819
            ],
            [
              -8.8119867,
              52.7221542
            ],
            [
              -8.8119572,
              52.7221315
            ],
            [
              -8.8119035,
              52.7221088
            ],
            [
              -8.8119572,
              52.7220373
            ],
            [
              -8.8119572,
              52.7219804
            ],
            [
              -8.8119572,
              52.7219252
            ],
            [
              -8.8119545,
              52.7218878
            ],
            [
              -8.8119143,
              52.7218407
            ],
            [
              -8.8119357,
              52.7217741
            ],
            [
              -8.8120028,
              52.7217367
            ],
            [
              -8.8119652,
              52.7217172
            ],
            [
              -8.8118499,
              52.7217107
            ],
            [
              -8.8117721,
              52.7217335
            ],
            [
              -8.8116326,
              52.7218115
            ],
            [
              -8.8115495,
              52.7219154
            ],
            [
              -8.8116541,
              52.7221575
            ],
            [
              -8.8117292,
              52.722242
            ]
          ]
        ]
      },
      "id": "way/695032371"
    },
    {
      "type": "Feature",
      "properties": {
        "@id": "way/695032372",
        "intermittent": "yes",
        "natural": "water",
        "salt": "no",
        "water": "pond"
      },
      "geometry": {
        "type": "Polygon",
        "coordinates": [
          [
            [
              -8.8473299,
              52.7211356
            ],
            [
              -8.8474587,
              52.7209163
            ],
            [
              -8.8472414,
              52.7207717
            ],
            [
              -8.8471126,
              52.7208952
            ],
            [
              -8.8471234,
              52.721017
            ],
            [
              -8.8472561,
              52.7210552
            ],
            [
              -8.8473299,
              52.7211356
            ]
          ]
        ]
      },
      "id": "way/695032372"
    },
    {
      "type": "Feature",
      "properties": {
        "@id": "way/695032373",
        "intermittent": "yes",
        "natural": "water",
        "salt": "no",
        "water": "pond"
      },
      "geometry": {
        "type": "Polygon",
        "coordinates": [
          [
            [
              -8.9340181,
              52.7202258
            ],
            [
              -8.9341657,
              52.7202551
            ],
            [
              -8.9342917,
              52.7202551
            ],
            [
              -8.9343722,
              52.7201901
            ],
            [
              -8.9343695,
              52.7201121
            ],
            [
              -8.9342622,
              52.7199773
            ],
            [
              -8.9341844,
              52.7199773
            ],
            [
              -8.9340771,
              52.7200244
            ],
            [
              -8.9339725,
              52.7200699
            ],
            [
              -8.9339108,
              52.720117
            ],
            [
              -8.9339028,
              52.7201722
            ],
            [
              -8.9339296,
              52.7201999
            ],
            [
              -8.9340181,
              52.7202258
            ]
          ]
        ]
      },
      "id": "way/695032373"
    },
    {
      "type": "Feature",
      "properties": {
        "@id": "way/695861531",
        "intermittent": "yes",
        "natural": "water",
        "water": "basin"
      },
      "geometry": {
        "type": "Polygon",
        "coordinates": [
          [
            [
              -8.8353606,
              52.6887552
            ],
            [
              -8.8355752,
              52.6886089
            ],
            [
              -8.8356073,
              52.6883618
            ],
            [
              -8.8354679,
              52.6881763
            ],
            [
              -8.8353177,
              52.6880886
            ],
            [
              -8.8350843,
              52.68803
            ],
            [
              -8.834851,
              52.6880366
            ],
            [
              -8.834636,
              52.6881317
            ],
            [
              -8.8345608,
              52.6882725
            ],
            [
              -8.8345448,
              52.6884048
            ],
            [
              -8.8346471,
              52.6885959
            ],
            [
              -8.8349314,
              52.688752
            ],
            [
              -8.835114,
              52.688789
            ],
            [
              -8.8353606,
              52.6887552
            ]
          ]
        ]
      },
      "id": "way/695861531"
    },
    {
      "type": "Feature",
      "properties": {
        "@id": "way/695861533",
        "intermittent": "yes",
        "natural": "water",
        "water": "basin"
      },
      "geometry": {
        "type": "Polygon",
        "coordinates": [
          [
            [
              -8.8330072,
              52.6908225
            ],
            [
              -8.8326307,
              52.6905259
            ],
            [
              -8.8326737,
              52.6903628
            ],
            [
              -8.8336151,
              52.6896488
            ],
            [
              -8.8328566,
              52.6892184
            ],
            [
              -8.8323617,
              52.6896716
            ],
            [
              -8.8316356,
              52.6901966
            ],
            [
              -8.8314742,
              52.6903465
            ],
            [
              -8.8320767,
              52.6908812
            ],
            [
              -8.8323187,
              52.6909888
            ],
            [
              -8.8327652,
              52.6909953
            ],
            [
              -8.8330072,
              52.6908225
            ]
          ]
        ]
      },
      "id": "way/695861533"
    },
    {
      "type": "Feature",
      "properties": {
        "@id": "way/695875782",
        "natural": "water",
        "water": "pond"
      },
      "geometry": {
        "type": "Polygon",
        "coordinates": [
          [
            [
              -8.827848,
              52.7072353
            ],
            [
              -8.8278264,
              52.7069284
            ],
            [
              -8.8279055,
              52.7063411
            ],
            [
              -8.8278853,
              52.7062163
            ],
            [
              -8.8274789,
              52.7061696
            ],
            [
              -8.8274814,
              52.706466
            ],
            [
              -8.82717,
              52.7064512
            ],
            [
              -8.8271695,
              52.7065515
            ],
            [
              -8.8268664,
              52.7065323
            ],
            [
              -8.8268459,
              52.7066633
            ],
            [
              -8.8266187,
              52.7066351
            ],
            [
              -8.8265746,
              52.7067162
            ],
            [
              -8.8262465,
              52.7066795
            ],
            [
              -8.8262583,
              52.7068698
            ],
            [
              -8.8263848,
              52.706982
            ],
            [
              -8.8264198,
              52.707104
            ],
            [
              -8.8263624,
              52.7072323
            ],
            [
              -8.8262075,
              52.7073135
            ],
            [
              -8.8262816,
              52.7074596
            ],
            [
              -8.8263815,
              52.7075754
            ],
            [
              -8.8265693,
              52.7076112
            ],
            [
              -8.8267624,
              52.7076534
            ],
            [
              -8.8270199,
              52.7076534
            ],
            [
              -8.8271701,
              52.7076274
            ],
            [
              -8.8273847,
              52.7075949
            ],
            [
              -8.8276314,
              52.7075592
            ],
            [
              -8.827846,
              52.7075332
            ],
            [
              -8.827846,
              52.7074909
            ],
            [
              -8.8279265,
              52.7074487
            ],
            [
              -8.8279211,
              52.7073999
            ],
            [
              -8.8277816,
              52.7073739
            ],
            [
              -8.8277709,
              52.7073252
            ],
            [
              -8.8278353,
              52.7072829
            ],
            [
              -8.827848,
              52.7072353
            ]
          ]
        ]
      },
      "id": "way/695875782"
    },
    {
      "type": "Feature",
      "properties": {
        "@id": "way/695875784",
        "intermittent": "yes",
        "natural": "water",
        "salt": "no",
        "water": "pond"
      },
      "geometry": {
        "type": "Polygon",
        "coordinates": [
          [
            [
              -8.9336103,
              52.7070852
            ],
            [
              -8.9338476,
              52.7070703
            ],
            [
              -8.9343036,
              52.7069321
            ],
            [
              -8.9353758,
              52.7065009
            ],
            [
              -8.9353326,
              52.7063459
            ],
            [
              -8.9352494,
              52.7062395
            ],
            [
              -8.9351108,
              52.7061929
            ],
            [
              -8.9348674,
              52.7062358
            ],
            [
              -8.9347072,
              52.7063964
            ],
            [
              -8.9345038,
              52.7064337
            ],
            [
              -8.9343652,
              52.706471
            ],
            [
              -8.9344206,
              52.7066278
            ],
            [
              -8.9342265,
              52.7068126
            ],
            [
              -8.934168,
              52.7068575
            ],
            [
              -8.9340232,
              52.7068519
            ],
            [
              -8.9338691,
              52.7068593
            ],
            [
              -8.9337182,
              52.7068668
            ],
            [
              -8.9336565,
              52.7069676
            ],
            [
              -8.9336103,
              52.7070852
            ]
          ]
        ]
      },
      "id": "way/695875784"
    },
    {
      "type": "Feature",
      "properties": {
        "@id": "way/695877663",
        "intermittent": "yes",
        "natural": "water",
        "salt": "no",
        "water": "pond"
      },
      "geometry": {
        "type": "Polygon",
        "coordinates": [
          [
            [
              -8.9350182,
              52.703979
            ],
            [
              -8.9351684,
              52.70394
            ],
            [
              -8.935222,
              52.7039287
            ],
            [
              -8.9353052,
              52.7039579
            ],
            [
              -8.9353588,
              52.7038978
            ],
            [
              -8.9352327,
              52.7037613
            ],
            [
              -8.9351094,
              52.7036865
            ],
            [
              -8.9349538,
              52.7036865
            ],
            [
              -8.9349028,
              52.7037125
            ],
            [
              -8.9347902,
              52.7037125
            ],
            [
              -8.934758,
              52.7037629
            ],
            [
              -8.9347124,
              52.703797
            ],
            [
              -8.9347204,
              52.7038344
            ],
            [
              -8.9348063,
              52.7038555
            ],
            [
              -8.9348894,
              52.703901
            ],
            [
              -8.9348787,
              52.7039465
            ],
            [
              -8.9349484,
              52.7039465
            ],
            [
              -8.9350182,
              52.703979
            ]
          ]
        ]
      },
      "id": "way/695877663"
    },
    {
      "type": "Feature",
      "properties": {
        "@id": "way/695877669",
        "natural": "water",
        "salt": "no",
        "water": "pond"
      },
      "geometry": {
        "type": "Polygon",
        "coordinates": [
          [
            [
              -8.8098896,
              52.7041388
            ],
            [
              -8.8099915,
              52.7040559
            ],
            [
              -8.81008,
              52.7038901
            ],
            [
              -8.8101256,
              52.7037617
            ],
            [
              -8.8100317,
              52.7036886
            ],
            [
              -8.8099405,
              52.703778
            ],
            [
              -8.8098547,
              52.7039681
            ],
            [
              -8.8098306,
              52.7040608
            ],
            [
              -8.8098896,
              52.7041388
            ]
          ]
        ]
      },
      "id": "way/695877669"
    },
    {
      "type": "Feature",
      "properties": {
        "@id": "way/695880711",
        "intermittent": "yes",
        "natural": "water",
        "water": "basin"
      },
      "geometry": {
        "type": "Polygon",
        "coordinates": [
          [
            [
              -8.8278455,
              52.7026119
            ],
            [
              -8.8278375,
              52.7023616
            ],
            [
              -8.8278267,
              52.7022105
            ],
            [
              -8.8277463,
              52.7021747
            ],
            [
              -8.8275827,
              52.7021634
            ],
            [
              -8.8274646,
              52.702191
            ],
            [
              -8.8274566,
              52.7022446
            ],
            [
              -8.8276444,
              52.7026298
            ],
            [
              -8.8276765,
              52.7026542
            ],
            [
              -8.8277516,
              52.7026526
            ],
            [
              -8.8278026,
              52.7026363
            ],
            [
              -8.8278455,
              52.7026119
            ]
          ]
        ]
      },
      "id": "way/695880711"
    },
    {
      "type": "Feature",
      "properties": {
        "@id": "way/695880712",
        "intermittent": "yes",
        "natural": "water",
        "water": "basin"
      },
      "geometry": {
        "type": "Polygon",
        "coordinates": [
          [
            [
              -8.8279546,
              52.702703
            ],
            [
              -8.8276354,
              52.702768
            ],
            [
              -8.8276623,
              52.7028704
            ],
            [
              -8.8277427,
              52.7029337
            ],
            [
              -8.8278822,
              52.7029923
            ],
            [
              -8.8279814,
              52.7029679
            ],
            [
              -8.8280056,
              52.7029175
            ],
            [
              -8.8279546,
              52.702703
            ]
          ]
        ]
      },
      "id": "way/695880712"
    },
    {
      "type": "Feature",
      "properties": {
        "@id": "way/695880713",
        "intermittent": "yes",
        "natural": "water",
        "water": "basin"
      },
      "geometry": {
        "type": "Polygon",
        "coordinates": [
          [
            [
              -8.8280083,
              52.7026249
            ],
            [
              -8.8284186,
              52.7025388
            ],
            [
              -8.8283167,
              52.7023226
            ],
            [
              -8.8281987,
              52.7022186
            ],
            [
              -8.828078,
              52.7022072
            ],
            [
              -8.8279466,
              52.7022072
            ],
            [
              -8.8279117,
              52.7023048
            ],
            [
              -8.8280083,
              52.7026249
            ]
          ]
        ]
      },
      "id": "way/695880713"
    },
    {
      "type": "Feature",
      "properties": {
        "@id": "way/695880714",
        "intermittent": "yes",
        "natural": "water",
        "water": "basin"
      },
      "geometry": {
        "type": "Polygon",
        "coordinates": [
          [
            [
              -8.828534,
              52.7025697
            ],
            [
              -8.8280753,
              52.7026802
            ],
            [
              -8.8281316,
              52.7028866
            ],
            [
              -8.8285393,
              52.7028671
            ],
            [
              -8.8285581,
              52.702716
            ],
            [
              -8.828534,
              52.7025697
            ]
          ]
        ]
      },
      "id": "way/695880714"
    },
    {
      "type": "Feature",
      "properties": {
        "@id": "way/695880715",
        "intermittent": "yes",
        "natural": "water",
        "water": "basin"
      },
      "geometry": {
        "type": "Polygon",
        "coordinates": [
          [
            [
              -8.8281933,
              52.7031044
            ],
            [
              -8.8286708,
              52.7030849
            ],
            [
              -8.8287137,
              52.7030816
            ],
            [
              -8.8286788,
              52.7029191
            ],
            [
              -8.828593,
              52.7028671
            ],
            [
              -8.8282926,
              52.702924
            ],
            [
              -8.828145,
              52.7029565
            ],
            [
              -8.8281209,
              52.7030183
            ],
            [
              -8.8281933,
              52.7031044
            ]
          ]
        ]
      },
      "id": "way/695880715"
    },
    {
      "type": "Feature",
      "properties": {
        "@id": "way/697244584",
        "intermittent": "yes",
        "natural": "water",
        "salt": "no",
        "water": "pond"
      },
      "geometry": {
        "type": "Polygon",
        "coordinates": [
          [
            [
              -8.8439512,
              52.7085776
            ],
            [
              -8.8440424,
              52.7085711
            ],
            [
              -8.8441443,
              52.7084915
            ],
            [
              -8.8441953,
              52.7083988
            ],
            [
              -8.8441953,
              52.708329
            ],
            [
              -8.8441497,
              52.7082916
            ],
            [
              -8.844088,
              52.7082542
            ],
            [
              -8.8439593,
              52.7082721
            ],
            [
              -8.8438707,
              52.7083663
            ],
            [
              -8.8438546,
              52.7084492
            ],
            [
              -8.8439512,
              52.7085776
            ]
          ]
        ]
      },
      "id": "way/697244584"
    },
    {
      "type": "Feature",
      "properties": {
        "@id": "way/841765504",
        "golf": "water_hazard",
        "natural": "water"
      },
      "geometry": {
        "type": "Polygon",
        "coordinates": [
          [
            [
              -8.9413088,
              52.6908354
            ],
            [
              -8.9413067,
              52.6906554
            ],
            [
              -8.9412582,
              52.6905405
            ],
            [
              -8.9411571,
              52.690326
            ],
            [
              -8.9411024,
              52.6902418
            ],
            [
              -8.9410329,
              52.6902022
            ],
            [
              -8.9409318,
              52.6902086
            ],
            [
              -8.9408622,
              52.6902366
            ],
            [
              -8.9406979,
              52.690409
            ],
            [
              -8.9406284,
              52.690432
            ],
            [
              -8.9404936,
              52.6903937
            ],
            [
              -8.9404325,
              52.690395
            ],
            [
              -8.9403967,
              52.6904269
            ],
            [
              -8.9403988,
              52.6904805
            ],
            [
              -8.9403293,
              52.690732
            ],
            [
              -8.9403946,
              52.6908035
            ],
            [
              -8.9404831,
              52.6908852
            ],
            [
              -8.9405568,
              52.6908942
            ],
            [
              -8.9407864,
              52.6908763
            ],
            [
              -8.9409949,
              52.6908788
            ],
            [
              -8.9413088,
              52.6908354
            ]
          ]
        ]
      },
      "id": "way/841765504"
    },
    {
      "type": "Feature",
      "properties": {
        "@id": "way/841765505",
        "golf": "water_hazard",
        "natural": "water"
      },
      "geometry": {
        "type": "Polygon",
        "coordinates": [
          [
            [
              -8.9402514,
              52.6907767
            ],
            [
              -8.9402514,
              52.6906733
            ],
            [
              -8.940243,
              52.6905788
            ],
            [
              -8.9402598,
              52.690538
            ],
            [
              -8.9402282,
              52.6904792
            ],
            [
              -8.940066,
              52.6906133
            ],
            [
              -8.9400429,
              52.6906644
            ],
            [
              -8.9399986,
              52.6907665
            ],
            [
              -8.9401018,
              52.6907818
            ],
            [
              -8.9402514,
              52.6907767
            ]
          ]
        ]
      },
      "id": "way/841765505"
    },
    {
      "type": "Feature",
      "properties": {
        "@id": "way/841765506",
        "golf": "water_hazard",
        "natural": "water"
      },
      "geometry": {
        "type": "Polygon",
        "coordinates": [
          [
            [
              -8.9333652,
              52.6938589
            ],
            [
              -8.9334579,
              52.693885
            ],
            [
              -8.9335373,
              52.693887
            ],
            [
              -8.9336664,
              52.6938769
            ],
            [
              -8.9337624,
              52.6938248
            ],
            [
              -8.9338154,
              52.6937646
            ],
            [
              -8.9338055,
              52.6936924
            ],
            [
              -8.9336035,
              52.6935218
            ],
            [
              -8.9333883,
              52.6933934
            ],
            [
              -8.9331003,
              52.6934215
            ],
            [
              -8.9330606,
              52.6934576
            ],
            [
              -8.9330871,
              52.6935218
            ],
            [
              -8.9333652,
              52.6938589
            ]
          ]
        ]
      },
      "id": "way/841765506"
    },
    {
      "type": "Feature",
      "properties": {
        "@id": "way/841765507",
        "golf": "water_hazard",
        "natural": "water"
      },
      "geometry": {
        "type": "Polygon",
        "coordinates": [
          [
            [
              -8.9379155,
              52.6927349
            ],
            [
              -8.9380526,
              52.6927449
            ],
            [
              -8.9381627,
              52.6927198
            ],
            [
              -8.9382687,
              52.692716
            ],
            [
              -8.9382728,
              52.6926971
            ],
            [
              -8.9382437,
              52.6926908
            ],
            [
              -8.9383767,
              52.6925473
            ],
            [
              -8.9383061,
              52.6925158
            ],
            [
              -8.9382375,
              52.6924554
            ],
            [
              -8.9382063,
              52.6924138
            ],
            [
              -8.93809,
              52.6924919
            ],
            [
              -8.9378573,
              52.6925662
            ],
            [
              -8.9379155,
              52.6927349
            ]
          ]
        ]
      },
      "id": "way/841765507"
    },
    {
      "type": "Feature",
      "properties": {
        "@id": "way/1220316330",
        "natural": "water",
        "water": "lake"
      },
      "geometry": {
        "type": "Polygon",
        "coordinates": [
          [
            [
              -8.876298,
              52.7038344
            ],
            [
              -8.8762765,
              52.7038838
            ],
            [
              -8.876268,
              52.7039436
            ],
            [
              -8.8763409,
              52.7039826
            ],
            [
              -8.8764783,
              52.7039826
            ],
            [
              -8.8765512,
              52.7039462
            ],
            [
              -8.8766413,
              52.7039358
            ],
            [
              -8.8767057,
              52.7039358
            ],
            [
              -8.8767572,
              52.7038812
            ],
            [
              -8.8767272,
              52.7038318
            ],
            [
              -8.8766885,
              52.7037798
            ],
            [
              -8.8765512,
              52.7037798
            ],
            [
              -8.876474,
              52.7038084
            ],
            [
              -8.8764371,
              52.7038158
            ],
            [
              -8.8763838,
              52.7038266
            ],
            [
              -8.876298,
              52.7038344
            ]
          ]
        ]
      },
      "id": "way/1220316330"
    },
    {
      "type": "Feature",
      "properties": {
        "@id": "way/1220316331",
        "natural": "water",
        "water": "lake"
      },
      "geometry": {
        "type": "Polygon",
        "coordinates": [
          [
            [
              -8.8764025,
              52.7037905
            ],
            [
              -8.876416,
              52.7037478
            ],
            [
              -8.8764092,
              52.7037152
            ],
            [
              -8.8763555,
              52.7037152
            ],
            [
              -8.8763588,
              52.703762
            ],
            [
              -8.876342,
              52.7037926
            ],
            [
              -8.8763838,
              52.7038266
            ],
            [
              -8.8764371,
              52.7038158
            ],
            [
              -8.8764025,
              52.7037905
            ]
          ]
        ]
      },
      "id": "way/1220316331"
    },
    {
      "type": "Feature",
      "properties": {
        "@id": "way/1220316332",
        "natural": "water",
        "water": "lake"
      },
      "geometry": {
        "type": "Polygon",
        "coordinates": [
          [
            [
              -8.8763924,
              52.7036459
            ],
            [
              -8.876426,
              52.7036296
            ],
            [
              -8.8764462,
              52.7036093
            ],
            [
              -8.8765033,
              52.7035909
            ],
            [
              -8.876547,
              52.7036011
            ],
            [
              -8.8765773,
              52.7036113
            ],
            [
              -8.8766143,
              52.7035971
            ],
            [
              -8.8766311,
              52.7035665
            ],
            [
              -8.8765975,
              52.7035522
            ],
            [
              -8.8765605,
              52.7035237
            ],
            [
              -8.8764697,
              52.7035237
            ],
            [
              -8.8763891,
              52.7035461
            ],
            [
              -8.8763521,
              52.7035726
            ],
            [
              -8.8762949,
              52.7036011
            ],
            [
              -8.8761874,
              52.7036093
            ],
            [
              -8.8761269,
              52.7036235
            ],
            [
              -8.8760933,
              52.7036622
            ],
            [
              -8.8761202,
              52.7037009
            ],
            [
              -8.8761807,
              52.7037131
            ],
            [
              -8.8762479,
              52.7036724
            ],
            [
              -8.8763386,
              52.7036663
            ],
            [
              -8.8763924,
              52.7036459
            ]
          ]
        ]
      },
      "id": "way/1220316332"
    },
    {
      "type": "Feature",
      "properties": {
        "@id": "way/1220316333",
        "natural": "water",
        "water": "lake"
      },
      "geometry": {
        "type": "Polygon",
        "coordinates": [
          [
            [
              -8.8766176,
              52.7036317
            ],
            [
              -8.8766008,
              52.7036622
            ],
            [
              -8.8766378,
              52.7036744
            ],
            [
              -8.8766949,
              52.7036724
            ],
            [
              -8.8767017,
              52.703703
            ],
            [
              -8.8767487,
              52.7037315
            ],
            [
              -8.8768025,
              52.7037294
            ],
            [
              -8.8768193,
              52.7036989
            ],
            [
              -8.8768025,
              52.7036724
            ],
            [
              -8.8767756,
              52.7036459
            ],
            [
              -8.8767554,
              52.7036093
            ],
            [
              -8.8766949,
              52.7035869
            ],
            [
              -8.876658,
              52.7036195
            ],
            [
              -8.8766176,
              52.7036317
            ]
          ]
        ]
      },
      "id": "way/1220316333"
    },
    {
      "type": "Feature",
      "properties": {
        "@id": "way/1314192482",
        "natural": "water"
      },
      "geometry": {
        "type": "Polygon",
        "coordinates": [
          [
            [
              -8.8129765,
              52.7006532
            ],
            [
              -8.8130422,
              52.7006487
            ],
            [
              -8.8130885,
              52.7006475
            ],
            [
              -8.8130857,
              52.7006307
            ],
            [
              -8.813171,
              52.7006041
            ],
            [
              -8.8131653,
              52.7005852
            ],
            [
              -8.8131085,
              52.7005745
            ],
            [
              -8.8131043,
              52.7004753
            ],
            [
              -8.8131267,
              52.7004612
            ],
            [
              -8.8131342,
              52.7003571
            ],
            [
              -8.8131407,
              52.7003169
            ],
            [
              -8.8131265,
              52.7002973
            ],
            [
              -8.8130971,
              52.700283
            ],
            [
              -8.8130399,
              52.7002751
            ],
            [
              -8.8130082,
              52.7002783
            ],
            [
              -8.8129811,
              52.7002874
            ],
            [
              -8.8129715,
              52.7003108
            ],
            [
              -8.8129699,
              52.7003362
            ],
            [
              -8.8129503,
              52.7003712
            ],
            [
              -8.8128719,
              52.7003933
            ],
            [
              -8.812854,
              52.7004081
            ],
            [
              -8.812829,
              52.7004289
            ],
            [
              -8.8127982,
              52.7004759
            ],
            [
              -8.8127543,
              52.7004996
            ],
            [
              -8.8127347,
              52.7005251
            ],
            [
              -8.8127412,
              52.700542
            ],
            [
              -8.8127823,
              52.700555
            ],
            [
              -8.8128224,
              52.7005353
            ],
            [
              -8.8128532,
              52.7005143
            ],
            [
              -8.8129083,
              52.7005302
            ],
            [
              -8.8129568,
              52.7005511
            ],
            [
              -8.8129736,
              52.7005756
            ],
            [
              -8.8130068,
              52.7005911
            ],
            [
              -8.81302,
              52.7006132
            ],
            [
              -8.8129888,
              52.700626
            ],
            [
              -8.8129765,
              52.7006532
            ]
          ]
        ]
      },
      "id": "way/1314192482"
    },
    {
      "type": "Feature",
      "properties": {
        "@id": "way/1314201420",
        "intermittent": "no",
        "natural": "water",
        "salt": "no",
        "water": "pond"
      },
      "geometry": {
        "type": "Polygon",
        "coordinates": [
          [
            [
              -8.8111405,
              52.700301
            ],
            [
              -8.8111533,
              52.7003127
            ],
            [
              -8.8111652,
              52.7003256
            ],
            [
              -8.8111792,
              52.7003282
            ],
            [
              -8.8111937,
              52.700325
            ],
            [
              -8.8112126,
              52.7003209
            ],
            [
              -8.8112382,
              52.7003088
            ],
            [
              -8.8112432,
              52.7003025
            ],
            [
              -8.8112313,
              52.7002861
            ],
            [
              -8.8112085,
              52.7002772
            ],
            [
              -8.8111692,
              52.7002727
            ],
            [
              -8.8111377,
              52.7002789
            ],
            [
              -8.8111031,
              52.700277
            ],
            [
              -8.811086,
              52.7002837
            ],
            [
              -8.8110881,
              52.7002938
            ],
            [
              -8.8111065,
              52.7002982
            ],
            [
              -8.8111405,
              52.700301
            ]
          ]
        ]
      },
      "id": "way/1314201420"
    },
    {
      "type": "Feature",
      "properties": {
        "@id": "way/1314201421",
        "intermittent": "no",
        "natural": "water",
        "salt": "no",
        "water": "pond"
      },
      "geometry": {
        "type": "Polygon",
        "coordinates": [
          [
            [
              -8.8117373,
              52.7005077
            ],
            [
              -8.8117493,
              52.7005314
            ],
            [
              -8.8117612,
              52.7005583
            ],
            [
              -8.8117725,
              52.7005788
            ],
            [
              -8.8117851,
              52.7005929
            ],
            [
              -8.8118203,
              52.7005957
            ],
            [
              -8.8118501,
              52.7005937
            ],
            [
              -8.8118767,
              52.7005997
            ],
            [
              -8.8118939,
              52.7006086
            ],
            [
              -8.8119284,
              52.7006013
            ],
            [
              -8.8119576,
              52.7005856
            ],
            [
              -8.8119742,
              52.7005623
            ],
            [
              -8.8119881,
              52.7005314
            ],
            [
              -8.812006,
              52.700498
            ],
            [
              -8.8119987,
              52.7004711
            ],
            [
              -8.8119844,
              52.7004691
            ],
            [
              -8.8119556,
              52.700465
            ],
            [
              -8.8119125,
              52.7004739
            ],
            [
              -8.8118694,
              52.7004811
            ],
            [
              -8.8118203,
              52.7004779
            ],
            [
              -8.8117785,
              52.7004703
            ],
            [
              -8.8117708,
              52.7004772
            ],
            [
              -8.8117373,
              52.7005077
            ]
          ]
        ]
      },
      "id": "way/1314201421"
    },
    {
      "type": "Feature",
      "properties": {
        "@id": "way/1314201433",
        "intermittent": "no",
        "natural": "water",
        "salt": "no",
        "water": "pond"
      },
      "geometry": {
        "type": "Polygon",
        "coordinates": [
          [
            [
              -8.8118513,
              52.6993664
            ],
            [
              -8.8118658,
              52.6993605
            ],
            [
              -8.8118752,
              52.6993537
            ],
            [
              -8.8118739,
              52.6993463
            ],
            [
              -8.8118641,
              52.6993393
            ],
            [
              -8.8118458,
              52.6993403
            ],
            [
              -8.8118313,
              52.6993468
            ],
            [
              -8.8118275,
              52.6993592
            ],
            [
              -8.8118352,
              52.6993641
            ],
            [
              -8.8118513,
              52.6993664
            ]
          ]
        ]
      },
      "id": "way/1314201433"
    },
    {
      "type": "Feature",
      "properties": {
        "@id": "way/1414703726",
        "natural": "water",
        "water": "pond"
      },
      "geometry": {
        "type": "Polygon",
        "coordinates": [
          [
            [
              -8.9373921,
              52.6895038
            ],
            [
              -8.9374436,
              52.6895211
            ],
            [
              -8.9375038,
              52.6895251
            ],
            [
              -8.9375388,
              52.6895125
            ],
            [
              -8.9375821,
              52.6894804
            ],
            [
              -8.9375913,
              52.689446
            ],
            [
              -8.9375757,
              52.6894233
            ],
            [
              -8.9375204,
              52.6893955
            ],
            [
              -8.9374685,
              52.6893873
            ],
            [
              -8.9374258,
              52.6893943
            ],
            [
              -8.9373908,
              52.6894077
            ],
            [
              -8.9373774,
              52.6894284
            ],
            [
              -8.9373744,
              52.6894489
            ],
            [
              -8.9373605,
              52.6894741
            ],
            [
              -8.9370558,
              52.6895511
            ],
            [
              -8.937027,
              52.6895489
            ],
            [
              -8.9370136,
              52.6895325
            ],
            [
              -8.9369928,
              52.6895088
            ],
            [
              -8.9369606,
              52.6895078
            ],
            [
              -8.9369146,
              52.6895126
            ],
            [
              -8.9368906,
              52.6895211
            ],
            [
              -8.9368761,
              52.6895411
            ],
            [
              -8.9368953,
              52.6895703
            ],
            [
              -8.9369301,
              52.6895802
            ],
            [
              -8.9369529,
              52.6895808
            ],
            [
              -8.9369812,
              52.6895767
            ],
            [
              -8.9370237,
              52.6895703
            ],
            [
              -8.9370522,
              52.6895726
            ],
            [
              -8.9371235,
              52.6895589
            ],
            [
              -8.9373921,
              52.6895038
            ]
          ]
        ]
      },
      "id": "way/1414703726"
    },
    {
      "type": "Feature",
      "properties": {
        "@id": "way/1446759914",
        "natural": "water"
      },
      "geometry": {
        "type": "Polygon",
        "coordinates": [
          [
            [
              -8.9238236,
              52.6824176
            ],
            [
              -8.9236297,
              52.682471
            ],
            [
              -8.9233423,
              52.6825713
            ],
            [
              -8.9231807,
              52.6827359
            ],
            [
              -8.923189,
              52.6829258
            ],
            [
              -8.923661,
              52.6832899
            ],
            [
              -8.9244039,
              52.6837282
            ],
            [
              -8.9253772,
              52.6846144
            ],
            [
              -8.9261401,
              52.6849181
            ],
            [
              -8.9275144,
              52.6854274
            ],
            [
              -8.9286034,
              52.6854586
            ],
            [
              -8.9296323,
              52.6853144
            ],
            [
              -8.9304052,
              52.684901
            ],
            [
              -8.930131,
              52.6842858
            ],
            [
              -8.9294952,
              52.6836846
            ],
            [
              -8.9282503,
              52.6830019
            ],
            [
              -8.9272267,
              52.6827261
            ],
            [
              -8.926016,
              52.6824121
            ],
            [
              -8.9238236,
              52.6824176
            ]
          ]
        ]
      },
      "id": "way/1446759914"
    },
    {
      "type": "Feature",
      "properties": {
        "@id": "way/315283599",
        "waterway": "river"
      },
      "geometry": {
        "type": "LineString",
        "coordinates": [
          [
            -8.8004267,
            52.6951965
          ],
          [
            -8.8005256,
            52.6955615
          ],
          [
            -8.8008942,
            52.6958557
          ],
          [
            -8.8020652,
            52.6958886
          ]
        ]
      },
      "id": "way/315283599"
    },
    {
      "type": "Feature",
      "properties": {
        "@id": "way/374697169",
        "boat": "no",
        "name": "Owengarney",
        "name:en": "Owengarney",
        "tidal": "yes",
        "waterway": "river"
      },
      "geometry": {
        "type": "LineString",
        "coordinates": [
          [
            -8.8079874,
            52.6918152
          ],
          [
            -8.8087424,
            52.6910691
          ],
          [
            -8.8096404,
            52.6908502
          ],
          [
            -8.8118559,
            52.6907104
          ],
          [
            -8.813138,
            52.6902227
          ],
          [
            -8.8135296,
            52.6896764
          ],
          [
            -8.8130629,
            52.6887725
          ],
          [
            -8.8126069,
            52.6880896
          ],
          [
            -8.8123119,
            52.6870296
          ],
          [
            -8.8115609,
            52.68595
          ],
          [
            -8.8100588,
            52.6852053
          ],
          [
            -8.8083047,
            52.6844086
          ],
          [
            -8.807323,
            52.6834298
          ],
          [
            -8.8072693,
            52.6825062
          ],
          [
            -8.8072693,
            52.6819336
          ],
          [
            -8.8072693,
            52.6816834
          ],
          [
            -8.8063842,
            52.6804963
          ],
          [
            -8.8061535,
            52.6798784
          ],
          [
            -8.8068509,
            52.6787369
          ],
          [
            -8.8088286,
            52.6773226
          ]
        ]
      },
      "id": "way/374697169"
    },
    {
      "type": "Feature",
      "properties": {
        "@id": "way/374712528",
        "boat": "no",
        "name": "Owengarney",
        "name:en": "Owengarney",
        "waterway": "river"
      },
      "geometry": {
        "type": "LineString",
        "coordinates": [
          [
            -8.7933841,
            52.699553
          ],
          [
            -8.7938186,
            52.6994579
          ],
          [
            -8.7946346,
            52.6991261
          ],
          [
            -8.7953138,
            52.6984473
          ],
          [
            -8.7956889,
            52.6976241
          ],
          [
            -8.7963985,
            52.6964876
          ],
          [
            -8.7967482,
            52.6960053
          ],
          [
            -8.7974578,
            52.6955445
          ],
          [
            -8.7985628,
            52.6951606
          ],
          [
            -8.7995309,
            52.6950285
          ],
          [
            -8.8000986,
            52.6950592
          ],
          [
            -8.8004267,
            52.6951965
          ],
          [
            -8.8013961,
            52.6955753
          ],
          [
            -8.8020652,
            52.6958886
          ],
          [
            -8.8022578,
            52.696205
          ],
          [
            -8.8021919,
            52.6965459
          ],
          [
            -8.8018726,
            52.6969207
          ],
          [
            -8.8009602,
            52.6975412
          ],
          [
            -8.8006764,
            52.6979036
          ],
          [
            -8.8007068,
            52.6983582
          ],
          [
            -8.8009897,
            52.6987319
          ],
          [
            -8.8017104,
            52.6989664
          ],
          [
            -8.8022781,
            52.6989633
          ],
          [
            -8.8029573,
            52.6987606
          ],
          [
            -8.8035635,
            52.6984149
          ]
        ]
      },
      "id": "way/374712528"
    },
    {
      "type": "Feature",
      "properties": {
        "@id": "way/434283120",
        "boat": "no",
        "name": "Owengarney",
        "name:en": "Owengarney",
        "waterway": "river"
      },
      "geometry": {
        "type": "LineString",
        "coordinates": [
          [
            -8.8035635,
            52.6984149
          ],
          [
            -8.8043869,
            52.698267
          ],
          [
            -8.8059937,
            52.698267
          ],
          [
            -8.8072779,
            52.6983037
          ],
          [
            -8.808548,
            52.6982481
          ],
          [
            -8.8092288,
            52.698141
          ],
          [
            -8.8100799,
            52.6977998
          ],
          [
            -8.8108838,
            52.6968671
          ],
          [
            -8.8116803,
            52.6958756
          ],
          [
            -8.8119181,
            52.6957179
          ]
        ]
      },
      "id": "way/434283120"
    },
    {
      "type": "Feature",
      "properties": {
        "@id": "way/1062311433",
        "boat": "no",
        "name": "Owengarney",
        "name:en": "Owengarney",
        "waterway": "river"
      },
      "geometry": {
        "type": "LineString",
        "coordinates": [
          [
            -8.8119181,
            52.6957179
          ],
          [
            -8.8120479,
            52.6956317
          ],
          [
            -8.8124136,
            52.6952081
          ],
          [
            -8.8123488,
            52.6947143
          ],
          [
            -8.8120581,
            52.6944012
          ],
          [
            -8.8111626,
            52.6940332
          ],
          [
            -8.810097,
            52.6938484
          ],
          [
            -8.8090742,
            52.6935571
          ],
          [
            -8.8079078,
            52.6926874
          ],
          [
            -8.8077255,
            52.6921803
          ],
          [
            -8.8079874,
            52.6918152
          ]
        ]
      },
      "id": "way/1062311433"
    },
    {
      "type": "Feature",
      "properties": {
        "@id": "way/1062313858",
        "source": "bing",
        "tidal": "yes",
        "waterway": "river"
      },
      "geometry": {
        "type": "LineString",
        "coordinates": [
          [
            -8.9421995,
            52.7403234
          ],
          [
            -8.9425144,
            52.7399748
          ],
          [
            -8.9425251,
            52.7397442
          ],
          [
            -8.9423561,
            52.7395152
          ],
          [
            -8.9419913,
            52.7392067
          ],
          [
            -8.9418277,
            52.738877
          ],
          [
            -8.9418205,
            52.7386431
          ],
          [
            -8.9419803,
            52.7384588
          ],
          [
            -8.9422163,
            52.7382388
          ],
          [
            -8.9423396,
            52.7381771
          ],
          [
            -8.9424911,
            52.738136
          ],
          [
            -8.9427161,
            52.7381093
          ],
          [
            -8.9429806,
            52.7380894
          ],
          [
            -8.9431047,
            52.7380517
          ],
          [
            -8.9431949,
            52.7379935
          ],
          [
            -8.9432712,
            52.7378908
          ],
          [
            -8.9432877,
            52.7377552
          ],
          [
            -8.9432423,
            52.7376485
          ],
          [
            -8.9430396,
            52.7374464
          ],
          [
            -8.9429778,
            52.7373387
          ],
          [
            -8.9429751,
            52.7372326
          ],
          [
            -8.9430488,
            52.7369658
          ],
          [
            -8.943029,
            52.736857
          ],
          [
            -8.9429129,
            52.7366346
          ],
          [
            -8.9427514,
            52.7363653
          ],
          [
            -8.942727,
            52.7362266
          ],
          [
            -8.9427367,
            52.7359694
          ],
          [
            -8.9426956,
            52.7358265
          ],
          [
            -8.9425141,
            52.7356645
          ],
          [
            -8.9422494,
            52.7354672
          ],
          [
            -8.9421696,
            52.7353748
          ],
          [
            -8.9421747,
            52.735231
          ],
          [
            -8.9421968,
            52.7350934
          ],
          [
            -8.9422674,
            52.7349559
          ],
          [
            -8.942497,
            52.7347508
          ],
          [
            -8.9429086,
            52.7345458
          ],
          [
            -8.9443892,
            52.7341057
          ],
          [
            -8.9466745,
            52.7335892
          ],
          [
            -8.9482196,
            52.7333132
          ],
          [
            -8.9502847,
            52.7329428
          ],
          [
            -8.9515936,
            52.7327966
          ],
          [
            -8.9536689,
            52.7327488
          ],
          [
            -8.9552147,
            52.732648
          ],
          [
            -8.9566898,
            52.7323973
          ],
          [
            -8.9598275,
            52.7315397
          ],
          [
            -8.9622718,
            52.7307419
          ],
          [
            -8.9724915,
            52.7263333
          ]
        ]
      },
      "id": "way/1062313858"
    },
    {
      "type": "Feature",
      "properties": {
        "@id": "way/1446775570",
        "waterway": "river"
      },
      "geometry": {
        "type": "LineString",
        "coordinates": [
          [
            -8.9225418,
            52.6883307
          ],
          [
            -8.9215742,
            52.688678
          ],
          [
            -8.921461,
            52.6887602
          ],
          [
            -8.9212772,
            52.6887488
          ],
          [
            -8.9206394,
            52.688818
          ],
          [
            -8.9201888,
            52.6889395
          ],
          [
            -8.9198034,
            52.6889343
          ],
          [
            -8.9193339,
            52.6889497
          ],
          [
            -8.9188132,
            52.6889594
          ],
          [
            -8.918498,
            52.6889054
          ],
          [
            -8.9179803,
            52.6885093
          ],
          [
            -8.9171856,
            52.6879135
          ],
          [
            -8.9163214,
            52.6871645
          ],
          [
            -8.9158387,
            52.6867025
          ],
          [
            -8.9156654,
            52.6862691
          ],
          [
            -8.9152302,
            52.685868
          ],
          [
            -8.9150813,
            52.6857251
          ],
          [
            -8.9142739,
            52.6849505
          ],
          [
            -8.914045,
            52.6847992
          ],
          [
            -8.9133707,
            52.6843533
          ],
          [
            -8.9132577,
            52.6842575
          ],
          [
            -8.9132713,
            52.6841421
          ],
          [
            -8.913403,
            52.6839454
          ],
          [
            -8.9136248,
            52.683068
          ],
          [
            -8.9136659,
            52.6826479
          ],
          [
            -8.9138636,
            52.6815261
          ],
          [
            -8.9146053,
            52.6733003
          ]
        ]
      },
      "id": "way/1446775570"
    },
    {
      "type": "Feature",
      "properties": {
        "@id": "way/1446775571",
        "waterway": "river"
      },
      "geometry": {
        "type": "LineString",
        "coordinates": [
          [
            -8.9218637,
            52.6874996
          ],
          [
            -8.9210752,
            52.6874603
          ],
          [
            -8.9205283,
            52.687257
          ],
          [
            -8.919942,
            52.6870664
          ],
          [
            -8.9195284,
            52.686971
          ],
          [
            -8.9186003,
            52.6865413
          ],
          [
            -8.9179921,
            52.6862151
          ],
          [
            -8.9179665,
            52.6859753
          ],
          [
            -8.917781,
            52.6858358
          ],
          [
            -8.9176009,
            52.685801
          ],
          [
            -8.9171078,
            52.6857365
          ],
          [
            -8.9167439,
            52.6856216
          ],
          [
            -8.9165708,
            52.6855669
          ],
          [
            -8.9155671,
            52.685343
          ],
          [
            -8.9148655,
            52.6851167
          ],
          [
            -8.9145471,
            52.6849765
          ],
          [
            -8.914045,
            52.6847992
          ]
        ]
      },
      "id": "way/1446775571"
    },
    {
      "type": "Feature",
      "properties": {
        "@id": "way/1446775572",
        "waterway": "river"
      },
      "geometry": {
        "type": "LineString",
        "coordinates": [
          [
            -8.9202758,
            52.6853276
          ],
          [
            -8.9195165,
            52.6853512
          ],
          [
            -8.9188618,
            52.6851905
          ],
          [
            -8.9185959,
            52.6850659
          ],
          [
            -8.9183297,
            52.6850659
          ],
          [
            -8.918199,
            52.6851163
          ],
          [
            -8.9181778,
            52.6852285
          ],
          [
            -8.9179543,
            52.6852792
          ],
          [
            -8.9177335,
            52.6852792
          ],
          [
            -8.917689,
            52.6853911
          ],
          [
            -8.9174398,
            52.6854285
          ],
          [
            -8.9173465,
            52.6854425
          ],
          [
            -8.9170699,
            52.6855243
          ],
          [
            -8.9169818,
            52.685593
          ],
          [
            -8.9167439,
            52.6856216
          ]
        ]
      },
      "id": "way/1446775572"
    },
    {
      "type": "Feature",
      "properties": {
        "@id": "way/1446775573",
        "waterway": "river"
      },
      "geometry": {
        "type": "LineString",
        "coordinates": [
          [
            -8.9203925,
            52.6858858
          ],
          [
            -8.9201343,
            52.6859552
          ],
          [
            -8.9198667,
            52.6859848
          ],
          [
            -8.9196183,
            52.6859568
          ],
          [
            -8.9195225,
            52.6859236
          ],
          [
            -8.9191665,
            52.6858857
          ],
          [
            -8.9188853,
            52.6858876
          ],
          [
            -8.9186937,
            52.6858876
          ],
          [
            -8.9185662,
            52.6858407
          ],
          [
            -8.9183505,
            52.6856859
          ],
          [
            -8.9183891,
            52.6856368
          ],
          [
            -8.9183508,
            52.6856047
          ],
          [
            -8.9182548,
            52.6856116
          ],
          [
            -8.918174,
            52.6857118
          ],
          [
            -8.9181196,
            52.6857284
          ],
          [
            -8.9180519,
            52.6857165
          ],
          [
            -8.91798,
            52.6856852
          ],
          [
            -8.9179056,
            52.6856504
          ],
          [
            -8.9178677,
            52.6856064
          ],
          [
            -8.9179174,
            52.6855334
          ],
          [
            -8.9179845,
            52.6854564
          ],
          [
            -8.9179309,
            52.6854389
          ],
          [
            -8.9178355,
            52.6854753
          ],
          [
            -8.9177978,
            52.6855104
          ],
          [
            -8.9177393,
            52.6855104
          ],
          [
            -8.9175681,
            52.6854776
          ],
          [
            -8.9174398,
            52.6854285
          ]
        ]
      },
      "id": "way/1446775573"
    },
    {
      "type": "Feature",
      "properties": {
        "@id": "way/1446775574",
        "waterway": "river"
      },
      "geometry": {
        "type": "LineString",
        "coordinates": [
          [
            -8.913244,
            52.6869496
          ],
          [
            -8.9137179,
            52.6869459
          ],
          [
            -8.91397,
            52.6868504
          ],
          [
            -8.914236,
            52.6867022
          ],
          [
            -8.9146454,
            52.6864395
          ],
          [
            -8.9147917,
            52.6862382
          ],
          [
            -8.9150813,
            52.6857251
          ]
        ]
      },
      "id": "way/1446775574"
    }
  ]
}